{"type": "FeatureCollection", "features": [ {"type": "Feature", "properties": {"norad_id": 66795, "name": "STARLINK-36047", "group": "last-30-days", "lat": -29.03936266743243, "lon": 171.7019117671566, "alt_km": 375.64413692654944, "timestamp": "2025-12-19T22:41:51.096963+00:00", "meta": {"OBJECT_NAME": "STARLINK-36047", "OBJECT_ID": "2025-278E", "EPOCH": "2025-12-19T18:00:00.998784", "MEAN_MOTION": 15.65723403, "ECCENTRICITY": 0.0001578, "INCLINATION": 42.9988, "RA_OF_ASC_NODE": 209.4453, "ARG_OF_PERICENTER": 256.7432, "MEAN_ANOMALY": 33.6865, "EPHEMERIS_TYPE": 0, "CLASSIFICATION_TYPE": "U", "NORAD_CAT_ID": 66795, "ELEMENT_SET_NO": 999, "REV_AT_EPOCH": 398, "BSTAR": -0.021988, "MEAN_MOTION_DOT": -0.02010535, "MEAN_MOTION_DDOT": 0}, "tle": {"line1": "1 66795U 25278E   25353.75001156 -.02010535  00000+0 -21988-1 0  9996", "line2": "2 66795  42.9988 209.4453 0001578 256.7432  33.6865 15.65723403  3989"}}, "geometry": {"type": "Point", "coordinates": [171.7019117671566, -29.03936266743243]}}, {"type": "Feature", "properties": {"norad_id": 66796, "name": "STARLINK-35964", "group": "last-30-days", "lat": 4.179862881191431, "lon": 22.308854165597186, "alt_km": 327.08189444824984, "timestamp": "2025-12-19T22:41:51.096977+00:00", "meta": {"OBJECT_NAME": "STARLINK-35964", "OBJECT_ID": "2025-278F", "EPOCH": "2025-12-19T18:00:00.998784", "MEAN_MOTION": 15.80878229, "ECCENTRICITY": 0.000151, "INCLINATION": 42.9921, "RA_OF_ASC_NODE": 208.0065, "ARG_OF_PERICENTER": 257.9661, "MEAN_ANOMALY": 240.5891, "EPHEMERIS_TYPE": 0, "CLASSIFICATION_TYPE": "U", "NORAD_CAT_ID": 66796, "ELEMENT_SET_NO": 999, "REV_AT_EPOCH": 392, "BSTAR": 1.0751e-05, "MEAN_MOTION_DOT": 1.625e-05, "MEAN_MOTION_DDOT": 0}, "tle": {"line1": "1 66796U 25278F   25353.75001156  .00001625  00000+0  10751-4 0  9992", "line2": "2 66796  42.9921 208.0065 0001510 257.9661 240.5891 15.80878229  3920"}}, "geometry": {"type": "Point", "coordinates": [22.308854165597186, 4.179862881191431]}}, {"type": "Feature", "properties": {"norad_id": 66797, "name": "STARLINK-36099", "group": "last-30-days", "lat": -26.894572556656748, "lon": 175.28554900068826, "alt_km": 375.54504154643655, "timestamp": "2025-12-19T22:41:51.096987+00:00", "meta": {"OBJECT_NAME": "STARLINK-36099", "OBJECT_ID": "2025-278G", "EPOCH": "2025-12-19T18:00:00.998784", "MEAN_MOTION": 15.65720399, "ECCENTRICITY": 0.0001526, "INCLINATION": 42.9986, "RA_OF_ASC_NODE": 209.4355, "ARG_OF_PERICENTER": 258.8194, "MEAN_ANOMALY": 35.4457, "EPHEMERIS_TYPE": 0, "CLASSIFICATION_TYPE": "U", "NORAD_CAT_ID": 66797, "ELEMENT_SET_NO": 999, "REV_AT_EPOCH": 414, "BSTAR": -0.021915, "MEAN_MOTION_DOT": -0.02004432, "MEAN_MOTION_DDOT": 0}, "tle": {"line1": "1 66797U 25278G   25353.75001156 -.02004432  00000+0 -21915-1 0  9997", "line2": "2 66797  42.9986 209.4355 0001526 258.8194  35.4457 15.65720399  4148"}}, "geometry": {"type": "Point", "coordinates": [175.28554900068826, -26.894572556656748]}}, {"type": "Feature", "properties": {"norad_id": 66798, "name": "STARLINK-36041", "group": "last-30-days", "lat": -25.788332576897076, "lon": 177.02595283412109, "alt_km": 375.46087850877393, "timestamp": "2025-12-19T22:41:51.096997+00:00", "meta": {"OBJECT_NAME": "STARLINK-36041", "OBJECT_ID": "2025-278H", "EPOCH": "2025-12-19T18:00:00.998784", "MEAN_MOTION": 15.65722245, "ECCENTRICITY": 0.0001555, "INCLINATION": 42.9989, "RA_OF_ASC_NODE": 209.4302, "ARG_OF_PERICENTER": 260.378, "MEAN_ANOMALY": 35.8042, "EPHEMERIS_TYPE": 0, "CLASSIFICATION_TYPE": "U", "NORAD_CAT_ID": 66798, "ELEMENT_SET_NO": 999, "REV_AT_EPOCH": 392, "BSTAR": -0.021975, "MEAN_MOTION_DOT": -0.02009451, "MEAN_MOTION_DDOT": 0}, "tle": {"line1": "1 66798U 25278H   25353.75001156 -.02009451  00000+0 -21975-1 0  9990", "line2": "2 66798  42.9989 209.4302 0001555 260.3780  35.8042 15.65722245  3926"}}, "geometry": {"type": "Point", "coordinates": [177.02595283412109, -25.788332576897076]}}, {"type": "Feature", "properties": {"norad_id": 66799, "name": "STARLINK-36044", "group": "last-30-days", "lat": -24.6610334146978, "lon": 178.7349893850666, "alt_km": 375.4459087349278, "timestamp": "2025-12-19T22:41:51.097007+00:00", "meta": {"OBJECT_NAME": "STARLINK-36044", "OBJECT_ID": "2025-278J", "EPOCH": "2025-12-19T18:00:00.998784", "MEAN_MOTION": 15.65720371, "ECCENTRICITY": 0.0001585, "INCLINATION": 42.9986, "RA_OF_ASC_NODE": 209.4259, "ARG_OF_PERICENTER": 258.1783, "MEAN_ANOMALY": 39.922, "EPHEMERIS_TYPE": 0, "CLASSIFICATION_TYPE": "U", "NORAD_CAT_ID": 66799, "ELEMENT_SET_NO": 999, "REV_AT_EPOCH": 408, "BSTAR": -0.021944, "MEAN_MOTION_DOT": -0.02006802, "MEAN_MOTION_DDOT": 0}, "tle": {"line1": "1 66799U 25278J   25353.75001156 -.02006802  00000+0 -21944-1 0  9994", "line2": "2 66799  42.9986 209.4259 0001585 258.1783  39.9220 15.65720371  4085"}}, "geometry": {"type": "Point", "coordinates": [178.7349893850666, -24.6610334146978]}}, {"type": "Feature", "properties": {"norad_id": 66800, "name": "STARLINK-35996", "group": "last-30-days", "lat": -22.352256360227457, "lon": -177.9410110649504, "alt_km": 375.35853800410223, "timestamp": "2025-12-19T22:41:51.097019+00:00", "meta": {"OBJECT_NAME": "STARLINK-35996", "OBJECT_ID": "2025-278K", "EPOCH": "2025-12-19T18:00:00.998784", "MEAN_MOTION": 15.65721333, "ECCENTRICITY": 0.0001542, "INCLINATION": 42.9988, "RA_OF_ASC_NODE": 209.4159, "ARG_OF_PERICENTER": 257.6049, "MEAN_ANOMALY": 44.3287, "EPHEMERIS_TYPE": 0, "CLASSIFICATION_TYPE": "U", "NORAD_CAT_ID": 66800, "ELEMENT_SET_NO": 999, "REV_AT_EPOCH": 387, "BSTAR": -0.021948, "MEAN_MOTION_DOT": -0.02007152, "MEAN_MOTION_DDOT": 0}, "tle": {"line1": "1 66800U 25278K   25353.75001156 -.02007152  00000+0 -21948-1 0  9990", "line2": "2 66800  42.9988 209.4159 0001542 257.6049  44.3287 15.65721333  3879"}}, "geometry": {"type": "Point", "coordinates": [-177.9410110649504, -22.352256360227457]}}, {"type": "Feature", "properties": {"norad_id": 66801, "name": "STARLINK-36080", "group": "last-30-days", "lat": -16.310042258360518, "lon": -170.08178927578638, "alt_km": 374.919447710864, "timestamp": "2025-12-19T22:41:51.097029+00:00", "meta": {"OBJECT_NAME": "STARLINK-36080", "OBJECT_ID": "2025-278L", "EPOCH": "2025-12-19T18:00:00.998784", "MEAN_MOTION": 15.65721488, "ECCENTRICITY": 0.0001605, "INCLINATION": 42.9991, "RA_OF_ASC_NODE": 209.3907, "ARG_OF_PERICENTER": 261.4922, "MEAN_ANOMALY": 50.0268, "EPHEMERIS_TYPE": 0, "CLASSIFICATION_TYPE": "U", "NORAD_CAT_ID": 66801, "ELEMENT_SET_NO": 999, "REV_AT_EPOCH": 408, "BSTAR": -0.021956, "MEAN_MOTION_DOT": -0.02007889, "MEAN_MOTION_DDOT": 0}, "tle": {"line1": "1 66801U 25278L   25353.75001156 -.02007889  00000+0 -21956-1 0  9997", "line2": "2 66801  42.9991 209.3907 0001605 261.4922  50.0268 15.65721488  4085"}}, "geometry": {"type": "Point", "coordinates": [-170.08178927578638, -16.310042258360518]}}, {"type": "Feature", "properties": {"norad_id": 66802, "name": "STARLINK-35604", "group": "last-30-days", "lat": -23.51614103373224, "lon": -179.58957655347538, "alt_km": 375.3207564944796, "timestamp": "2025-12-19T22:41:51.097039+00:00", "meta": {"OBJECT_NAME": "STARLINK-35604", "OBJECT_ID": "2025-278M", "EPOCH": "2025-12-19T18:00:00.998784", "MEAN_MOTION": 15.65720169, "ECCENTRICITY": 0.0001517, "INCLINATION": 42.9989, "RA_OF_ASC_NODE": 209.4204, "ARG_OF_PERICENTER": 263.0463, "MEAN_ANOMALY": 36.9715, "EPHEMERIS_TYPE": 0, "CLASSIFICATION_TYPE": "U", "NORAD_CAT_ID": 66802, "ELEMENT_SET_NO": 999, "REV_AT_EPOCH": 408, "BSTAR": -0.021936, "MEAN_MOTION_DOT": -0.020061, "MEAN_MOTION_DDOT": 0}, "tle": {"line1": "1 66802U 25278M   25353.75001156 -.02006100  00000+0 -21936-1 0  9991", "line2": "2 66802  42.9989 209.4204 0001517 263.0463  36.9715 15.65720169  4089"}}, "geometry": {"type": "Point", "coordinates": [-179.58957655347538, -23.51614103373224]}}, {"type": "Feature", "properties": {"norad_id": 66803, "name": "STARLINK-35565", "group": "last-30-days", "lat": -21.172397807704836, "lon": -176.32161106182488, "alt_km": 375.2754234905815, "timestamp": "2025-12-19T22:41:51.097049+00:00", "meta": {"OBJECT_NAME": "STARLINK-35565", "OBJECT_ID": "2025-278N", "EPOCH": "2025-12-19T18:00:00.998784", "MEAN_MOTION": 15.65717587, "ECCENTRICITY": 0.0001537, "INCLINATION": 42.9986, "RA_OF_ASC_NODE": 209.4106, "ARG_OF_PERICENTER": 258.8385, "MEAN_ANOMALY": 45.0134, "EPHEMERIS_TYPE": 0, "CLASSIFICATION_TYPE": "U", "NORAD_CAT_ID": 66803, "ELEMENT_SET_NO": 999, "REV_AT_EPOCH": 417, "BSTAR": -0.021866, "MEAN_MOTION_DOT": -0.02000299, "MEAN_MOTION_DDOT": 0}, "tle": {"line1": "1 66803U 25278N   25353.75001156 -.02000299  00000+0 -21866-1 0  9997", "line2": "2 66803  42.9986 209.4106 0001537 258.8385  45.0134 15.65717587  4171"}}, "geometry": {"type": "Point", "coordinates": [-176.32161106182488, -21.172397807704836]}}, {"type": "Feature", "properties": {"norad_id": 66804, "name": "STARLINK-36038", "group": "last-30-days", "lat": -19.976910394893952, "lon": -174.72617859909403, "alt_km": 375.2518672024398, "timestamp": "2025-12-19T22:41:51.097061+00:00", "meta": {"OBJECT_NAME": "STARLINK-36038", "OBJECT_ID": "2025-278P", "EPOCH": "2025-12-19T18:00:00.998784", "MEAN_MOTION": 15.65719763, "ECCENTRICITY": 0.0001566, "INCLINATION": 42.999, "RA_OF_ASC_NODE": 209.4062, "ARG_OF_PERICENTER": 256.4397, "MEAN_ANOMALY": 49.3282, "EPHEMERIS_TYPE": 0, "CLASSIFICATION_TYPE": "U", "NORAD_CAT_ID": 66804, "ELEMENT_SET_NO": 999, "REV_AT_EPOCH": 408, "BSTAR": -0.021907, "MEAN_MOTION_DOT": -0.0200382, "MEAN_MOTION_DDOT": 0}, "tle": {"line1": "1 66804U 25278P   25353.75001156 -.02003820  00000+0 -21907-1 0  9997", "line2": "2 66804  42.9990 209.4062 0001566 256.4397  49.3282 15.65719763  4086"}}, "geometry": {"type": "Point", "coordinates": [-174.72617859909403, -19.976910394893952]}}]}